{"fetched_at":"2026-03-30T06:02:59Z","count":15439,"tles":[{"name":"STARLINK-31902","line1":"1 59666U 24084N   26087.87039395  .00001842  00000+0  76442-4 0  9998","line2":"2 59666  43.0016 293.7279 0000565 271.9535  88.1252 15.27584116107302","category":"Starlink"}]}